{"type":"FeatureCollection","features":[{"type":"Feature","properties":{"plan":"FHA-031","name":"Baffle Creek","mgmt":"A"},"geometry":{"type":"MultiPolygon","coordinates":[[[[152.04206,-24.49882],[152.043,-24.50001],[152.04236,-24.49938],[152.04231,-24.49987],[152.04308,-24.50081],[152.0426,-24.50245],[152.04312,-24.50184],[152.04418,-24.50209],[152.04581,-24.50514],[152.04742,-24.50612],[152.04922,-24.51028],[152.05085,-24.51075],[152.04792,-24.50499],[152.04967,-24.50637],[152.06309,-24.52156],[152.06228,-24.52313],[152.0633,-24.5235],[152.06476,-24.52558],[152.0661,-24.52582],[152.06609,-24.52652],[152.06675,-24.52661],[152.06933,-24.52994],[152.07292,-24.5384],[152.06811,-24.54163],[152.06419,-24.54107],[152.05993,-24.53105],[152.05633,-24.53045],[152.05476,-24.52893],[152.05123,-24.52745],[152.05058,-24.52768],[152.04913,-24.53],[152.04823,-24.53513],[152.05137,-24.53559],[152.05096,-24.53792],[152.04645,-24.53726],[152.04446,-24.54082],[152.04268,-24.54085],[152.04252,-24.53794],[152.03899,-24.53743],[152.03651,-24.53149],[152.03344,-24.53034],[152.03055,-24.53224],[152.02786,-24.53251],[152.02464,-24.52931],[152.02323,-24.52673],[152.02068,-24.52456],[152.02104,-24.52442],[152.01742,-24.5187],[152.01446,-24.5174],[152.01397,-24.51659],[152.00943,-24.51497],[152.00789,-24.51518],[152.00756,-24.51675],[152.0061,-24.51772],[151.99938,-24.51795],[151.99872,-24.51832],[151.99867,-24.52027],[151.99821,-24.5207],[151.99348,-24.52232],[151.9935,-24.52528],[151.99118,-24.52769],[151.99348,-24.52957],[151.99673,-24.53386],[151.99679,-24.53529],[151.99492,-24.53692],[151.99097,-24.53701],[151.98993,-24.53642],[151.98935,-24.53501],[151.98662,-24.53666],[151.9866,-24.53753],[151.98748,-24.53839],[151.99105,-24.53814],[151.99325,-24.53968],[151.99361,-24.54073],[151.99282,-24.54162],[151.99159,-24.5419],[151.98831,-24.54057],[151.98581,-24.54191],[151.9853,-24.54345],[151.98726,-24.54303],[151.98824,-24.54428],[151.98737,-24.54675],[151.98725,-24.54957],[151.9846,-24.55127],[151.98203,-24.54964],[151.98401,-24.55267],[151.98618,-24.55334],[151.98593,-24.55452],[151.98747,-24.55501],[151.98793,-24.55312],[151.98872,-24.55292],[151.98923,-24.55331],[151.98867,-24.55454],[151.98978,-24.55538],[151.9905,-24.55512],[151.99089,-24.55528],[151.9895,-24.55574],[151.98837,-24.55449],[151.98868,-24.55313],[151.98808,-24.55333],[151.98811,-24.55471],[151.98717,-24.55529],[151.98577,-24.55478],[151.98603,-24.55357],[151.98505,-24.55342],[151.98493,-24.55393],[151.98061,-24.55629],[151.9793,-24.55558],[151.97753,-24.55669],[151.97481,-24.56347],[151.96995,-24.56795],[151.96866,-24.57065],[151.97044,-24.57348],[151.97037,-24.57467],[151.96882,-24.57585],[151.96836,-24.5769],[151.96903,-24.57962],[151.96876,-24.58061],[151.96608,-24.58125],[151.9653,-24.58339],[151.9638,-24.58546],[151.95948,-24.58707],[151.95919,-24.5903],[151.95817,-24.59039],[151.95599,-24.58949],[151.95538,-24.58982],[151.95504,-24.59155],[151.95482,-24.5916],[151.95518,-24.58967],[151.95556,-24.58932],[151.95901,-24.59002],[151.95918,-24.58695],[151.96347,-24.58528],[151.96504,-24.58321],[151.96579,-24.5811],[151.96863,-24.58017],[151.96788,-24.57649],[151.9701,-24.57439],[151.97001,-24.57309],[151.96829,-24.5708],[151.96887,-24.56873],[151.96809,-24.56946],[151.96708,-24.56914],[151.96475,-24.57166],[151.96348,-24.57177],[151.96292,-24.57129],[151.9647,-24.57149],[151.96593,-24.56961],[151.96721,-24.5688],[151.96914,-24.56834],[151.97423,-24.56283],[151.97575,-24.55986],[151.97654,-24.55682],[151.98331,-24.55274],[151.98224,-24.55184],[151.98146,-24.54983],[151.98174,-24.54924],[151.98469,-24.55064],[151.98688,-24.54916],[151.98676,-24.54852],[151.98514,-24.5477],[151.98143,-24.54888],[151.98045,-24.55013],[151.9797,-24.55008],[151.97914,-24.54937],[151.9804,-24.54987],[151.9814,-24.54866],[151.98497,-24.54758],[151.9865,-24.54818],[151.9876,-24.54442],[151.98484,-24.54368],[151.98534,-24.54149],[151.98793,-24.54008],[151.98931,-24.53991],[151.9916,-24.54148],[151.99297,-24.5408],[151.99285,-24.53998],[151.99078,-24.53849],[151.98864,-24.53895],[151.98707,-24.53861],[151.98597,-24.53663],[151.9896,-24.53459],[151.99113,-24.53639],[151.99457,-24.53628],[151.99599,-24.53486],[151.9959,-24.53406],[151.99345,-24.53212],[151.99272,-24.5304],[151.99022,-24.52882],[151.98998,-24.52804],[151.9905,-24.52597],[151.9921,-24.52493],[151.99254,-24.52162],[151.99527,-24.52004],[151.99702,-24.51765],[151.99458,-24.5172],[151.99355,-24.51773],[151.99063,-24.5177],[151.98523,-24.51658],[151.98499,-24.51611],[151.98268,-24.51706],[151.98084,-24.51688],[151.97926,-24.51756],[151.97307,-24.51477],[151.96929,-24.51434],[151.96246,-24.51698],[151.96036,-24.51904],[151.95817,-24.51975],[151.95022,-24.51584],[151.94316,-24.51421],[151.94218,-24.51445],[151.94245,-24.51514],[151.94116,-24.51428],[151.93877,-24.51458],[151.93495,-24.51744],[151.93392,-24.51674],[151.93231,-24.51274],[151.9286,-24.51053],[151.92645,-24.50839],[151.92842,-24.50799],[151.93046,-24.50989],[151.93556,-24.51147],[151.94964,-24.51173],[151.95467,-24.51541],[151.95842,-24.51607],[151.96225,-24.51553],[151.96575,-24.51251],[151.96743,-24.51195],[151.97564,-24.51287],[151.98332,-24.51182],[151.98808,-24.51206],[151.99745,-24.51431],[152.00047,-24.51178],[152.00194,-24.51193],[152.00481,-24.51096],[152.00958,-24.51083],[152.01128,-24.51231],[152.01559,-24.51029],[152.01976,-24.50967],[152.02128,-24.51083],[152.02128,-24.51181],[152.02209,-24.51181],[152.02209,-24.51116],[152.02291,-24.51181],[152.02541,-24.51028],[152.02553,-24.51068],[152.02785,-24.51095],[152.02967,-24.51066],[152.03248,-24.50882],[152.03451,-24.50832],[152.03753,-24.50991],[152.03906,-24.51292],[152.03911,-24.51449],[152.04149,-24.51305],[152.04204,-24.51047],[152.0433,-24.51224],[152.04325,-24.5151],[152.04388,-24.51539],[152.04463,-24.51332],[152.04437,-24.51241],[152.04355,-24.51218],[152.04481,-24.51177],[152.04524,-24.51022],[152.04391,-24.5084],[152.0446,-24.50702],[152.04334,-24.50553],[152.04333,-24.50358],[152.04153,-24.50518],[152.04032,-24.50348],[152.03977,-24.50652],[152.03763,-24.50601],[152.03852,-24.50882],[152.04116,-24.50938],[152.03838,-24.51149],[152.03721,-24.50928],[152.03407,-24.50798],[152.03298,-24.5083],[152.02897,-24.51067],[152.02968,-24.50898],[152.03156,-24.50666],[152.03384,-24.50511],[152.03485,-24.50254],[152.03652,-24.50126],[152.03675,-24.50233],[152.03953,-24.50216],[152.04057,-24.50288],[152.04034,-24.49884],[152.04183,-24.49882],[152.0403,-24.49642],[152.04126,-24.49597],[152.04292,-24.49881],[152.04206,-24.49882]]],[[[151.89858,-24.47776],[151.89845,-24.47914],[151.89908,-24.48017],[151.90184,-24.48109],[151.90283,-24.48213],[151.90231,-24.48638],[151.90582,-24.48799],[151.90817,-24.49033],[151.90802,-24.49196],[151.90192,-24.49595],[151.90154,-24.49672],[151.90193,-24.4973],[151.90472,-24.49768],[151.90569,-24.4953],[151.90681,-24.49459],[151.91033,-24.49506],[151.9108,-24.49891],[151.90864,-24.5001],[151.90817,-24.50115],[151.90935,-24.50311],[151.91096,-24.50396],[151.91349,-24.50166],[151.92207,-24.49986],[151.92262,-24.4995],[151.92249,-24.49878],[151.92422,-24.49825],[151.92726,-24.50009],[151.92733,-24.50097],[151.92648,-24.50236],[151.92808,-24.5071],[151.92624,-24.50751],[151.92553,-24.50374],[151.92248,-24.50398],[151.91868,-24.50531],[151.91366,-24.50828],[151.90858,-24.50852],[151.90634,-24.50914],[151.90332,-24.51205],[151.90055,-24.52015],[151.90121,-24.52224],[151.90281,-24.52311],[151.90486,-24.52746],[151.90626,-24.53346],[151.90245,-24.53743],[151.90157,-24.53924],[151.90704,-24.54345],[151.90858,-24.54562],[151.90805,-24.54525],[151.90751,-24.54632],[151.90764,-24.54511],[151.90726,-24.54478],[151.907,-24.54585],[151.90631,-24.54613],[151.90723,-24.54739],[151.9075,-24.54955],[151.90664,-24.55641],[151.90779,-24.55598],[151.90805,-24.55698],[151.90764,-24.55621],[151.90621,-24.55685],[151.90445,-24.56025],[151.90407,-24.5626],[151.90268,-24.56463],[151.90359,-24.56494],[151.90345,-24.56606],[151.90282,-24.56631],[151.90302,-24.56693],[151.90253,-24.5663],[151.90339,-24.56523],[151.9024,-24.56465],[151.90379,-24.56074],[151.9012,-24.56274],[151.89755,-24.56829],[151.89753,-24.56988],[151.89826,-24.57057],[151.89585,-24.57471],[151.89321,-24.57738],[151.88985,-24.57965],[151.88653,-24.58099],[151.88463,-24.58259],[151.88692,-24.58326],[151.88777,-24.58238],[151.88824,-24.58246],[151.88907,-24.58348],[151.8882,-24.58445],[151.88809,-24.58378],[151.88884,-24.58332],[151.88814,-24.58257],[151.88736,-24.58334],[151.88561,-24.58314],[151.88475,-24.58362],[151.88437,-24.58239],[151.88667,-24.58053],[151.88979,-24.57941],[151.89011,-24.57872],[151.8845,-24.57981],[151.88289,-24.58042],[151.88113,-24.58236],[151.87595,-24.58352],[151.86868,-24.58373],[151.86374,-24.58188],[151.86016,-24.58163],[151.85915,-24.58661],[151.86016,-24.58755],[151.86375,-24.58902],[151.86432,-24.59096],[151.86055,-24.59536],[151.85617,-24.59621],[151.85568,-24.59785],[151.85691,-24.60297],[151.85642,-24.60365],[151.85485,-24.60435],[151.85609,-24.60354],[151.85651,-24.60229],[151.85553,-24.59863],[151.85548,-24.59612],[151.85634,-24.59543],[151.85817,-24.59552],[151.85478,-24.59431],[151.85293,-24.59219],[151.84901,-24.59487],[151.8489,-24.59713],[151.84692,-24.60011],[151.84618,-24.60077],[151.84557,-24.59988],[151.84746,-24.59825],[151.84811,-24.59659],[151.84806,-24.59471],[151.8507,-24.59237],[151.85322,-24.59173],[151.85654,-24.59426],[151.85948,-24.59496],[151.8632,-24.59073],[151.86295,-24.58958],[151.85963,-24.58814],[151.85845,-24.58653],[151.85852,-24.58326],[151.86002,-24.58063],[151.8584,-24.5808],[151.8579,-24.58149],[151.85601,-24.58025],[151.8553,-24.57904],[151.85528,-24.57839],[151.85615,-24.58018],[151.85786,-24.58126],[151.85869,-24.58051],[151.86204,-24.58018],[151.86841,-24.58275],[151.87141,-24.58304],[151.87794,-24.58205],[151.87996,-24.58133],[151.87931,-24.58104],[151.87959,-24.58081],[151.89199,-24.57711],[151.89653,-24.57165],[151.8969,-24.56762],[151.89791,-24.56672],[151.89863,-24.56419],[151.90316,-24.55911],[151.90568,-24.55491],[151.9061,-24.55275],[151.90517,-24.54817],[151.90553,-24.54517],[151.90503,-24.54345],[151.90438,-24.54267],[151.9015,-24.54159],[151.90034,-24.53994],[151.90117,-24.53726],[151.90498,-24.5326],[151.90518,-24.53118],[151.90307,-24.52761],[151.90171,-24.52688],[151.89939,-24.52755],[151.9,-24.53028],[151.89883,-24.53124],[151.89977,-24.52984],[151.89915,-24.52738],[151.90149,-24.52653],[151.89916,-24.52353],[151.89922,-24.51662],[151.89802,-24.51873],[151.8963,-24.51753],[151.89528,-24.51765],[151.89474,-24.51721],[151.89668,-24.5173],[151.89797,-24.51826],[151.90005,-24.51267],[151.90441,-24.50772],[151.90603,-24.50781],[151.91461,-24.50561],[151.92158,-24.50189],[151.92599,-24.50078],[151.92458,-24.50025],[151.91996,-24.50144],[151.91497,-24.50195],[151.91214,-24.50471],[151.90958,-24.50475],[151.90878,-24.50423],[151.90726,-24.5011],[151.90951,-24.49613],[151.90688,-24.49542],[151.90609,-24.49745],[151.90476,-24.49859],[151.90264,-24.49847],[151.90092,-24.4969],[151.90119,-24.49546],[151.90756,-24.4912],[151.90469,-24.48821],[151.90143,-24.4874],[151.90093,-24.48683],[151.90094,-24.48499],[151.90207,-24.48339],[151.90195,-24.48259],[151.8982,-24.48085],[151.89771,-24.4781],[151.89708,-24.47844],[151.89657,-24.48108],[151.89531,-24.48165],[151.88916,-24.47757],[151.88956,-24.47673],[151.89269,-24.47763],[151.89407,-24.47855],[151.89469,-24.48016],[151.89544,-24.48062],[151.89594,-24.48062],[151.8962,-24.47856],[151.8957,-24.47775],[151.89633,-24.47672],[151.89733,-24.47661],[151.89858,-24.47776]]],[[[151.8338,-24.42062],[151.8395,-24.42177],[151.84175,-24.42314],[151.84294,-24.42469],[151.84326,-24.42601],[151.84276,-24.43094],[151.84383,-24.43415],[151.84684,-24.43948],[151.84841,-24.44493],[151.84835,-24.44642],[151.85048,-24.44757],[151.8513,-24.44886],[151.85442,-24.45049],[151.85624,-24.45084],[151.85781,-24.45462],[151.85845,-24.45544],[151.8602,-24.45612],[151.86124,-24.45762],[151.86398,-24.46359],[151.86501,-24.46384],[151.86605,-24.46244],[151.86719,-24.46209],[151.86948,-24.46241],[151.87218,-24.46978],[151.87552,-24.47485],[151.88005,-24.47403],[151.88242,-24.47691],[151.88392,-24.47783],[151.88769,-24.47658],[151.88848,-24.47661],[151.88815,-24.47741],[151.88555,-24.47852],[151.88304,-24.4784],[151.8809,-24.47703],[151.87967,-24.47523],[151.87664,-24.47525],[151.87562,-24.47612],[151.87446,-24.47571],[151.8704,-24.46848],[151.86941,-24.46398],[151.86865,-24.46293],[151.86734,-24.46305],[151.86546,-24.4646],[151.86452,-24.46454],[151.86273,-24.46322],[151.86108,-24.45988],[151.85919,-24.45984],[151.85616,-24.46279],[151.85531,-24.46184],[151.85719,-24.46139],[151.85863,-24.45961],[151.86007,-24.45972],[151.86069,-24.45904],[151.85969,-24.45709],[151.85693,-24.45537],[151.85518,-24.4529],[151.85511,-24.45147],[151.85129,-24.4498],[151.85003,-24.44986],[151.84747,-24.45112],[151.84797,-24.45244],[151.84465,-24.45342],[151.84365,-24.45307],[151.84097,-24.45407],[151.84112,-24.45344],[151.84337,-24.45229],[151.84483,-24.45283],[151.84711,-24.45242],[151.84741,-24.45216],[151.84591,-24.4518],[151.84585,-24.45106],[151.847,-24.45012],[151.84904,-24.4498],[151.84891,-24.44839],[151.8495,-24.44797],[151.84793,-24.4473],[151.84566,-24.43799],[151.84355,-24.43547],[151.84195,-24.43157],[151.84157,-24.42968],[151.84238,-24.42515],[151.84069,-24.4232],[151.8328,-24.42108],[151.83048,-24.41982],[151.82873,-24.4181],[151.82797,-24.41598],[151.82772,-24.41145],[151.8264,-24.4099],[151.82452,-24.406],[151.82496,-24.40485],[151.8264,-24.40399],[151.82678,-24.40262],[151.82702,-24.39597],[151.82605,-24.39436],[151.82473,-24.39385],[151.82532,-24.39332],[151.82721,-24.39568],[151.82809,-24.40107],[151.82765,-24.40434],[151.82653,-24.40525],[151.82653,-24.40766],[151.82878,-24.41139],[151.82966,-24.41729],[151.83154,-24.41947],[151.8338,-24.42062]]],[[[151.82413,-24.39312],[151.8237,-24.39201],[151.82425,-24.38749],[151.82461,-24.38754],[151.8246,-24.39241],[151.82413,-24.39312]]]]}},{"type":"Feature","properties":{"plan":"FHA-031","name":"Baffle Creek","mgmt":"B"},"geometry":{"type":"Polygon","coordinates":[[[152.02128,-24.51083],[152.02209,-24.51116],[152.02209,-24.51181],[152.02128,-24.51181],[152.02128,-24.51083]]]}},{"type":"Feature","properties":{"plan":"FHA-030","name":"Beelbi","mgmt":"A"},"geometry":{"type":"Polygon","coordinates":[[[152.65871,-25.22406],[152.66591,-25.23045],[152.66666,-25.23228],[152.67081,-25.23574],[152.67675,-25.23623],[152.67947,-25.2369],[152.68154,-25.23823],[152.68005,-25.24718],[152.67522,-25.24485],[152.66877,-25.24412],[152.66746,-25.24569],[152.66746,-25.24669],[152.66791,-25.24646],[152.66884,-25.248],[152.66692,-25.24641],[152.66537,-25.2471],[152.66386,-25.24695],[152.66094,-25.24405],[152.65841,-25.24382],[152.65977,-25.24683],[152.66217,-25.24835],[152.66249,-25.24915],[152.66155,-25.25254],[152.66277,-25.2563],[152.66214,-25.25955],[152.66099,-25.25955],[152.65993,-25.25822],[152.66036,-25.25715],[152.65906,-25.25617],[152.65884,-25.2549],[152.65768,-25.25393],[152.65827,-25.25327],[152.65683,-25.25213],[152.65585,-25.25247],[152.65477,-25.25176],[152.65458,-25.25223],[152.6535,-25.25187],[152.65135,-25.24817],[152.65092,-25.24621],[152.64847,-25.24431],[152.65093,-25.24472],[152.65116,-25.24552],[152.65192,-25.24306],[152.6527,-25.24238],[152.65264,-25.24151],[152.65116,-25.23971],[152.6515,-25.23808],[152.65072,-25.23715],[152.64992,-25.23379],[152.64957,-25.23355],[152.64907,-25.23467],[152.6497,-25.23524],[152.64966,-25.23634],[152.64787,-25.23447],[152.64797,-25.23399],[152.64853,-25.23439],[152.64875,-25.234],[152.64824,-25.23217],[152.64781,-25.23341],[152.64733,-25.23317],[152.64721,-25.23396],[152.64608,-25.23403],[152.64582,-25.23479],[152.64326,-25.23488],[152.64248,-25.23541],[152.64261,-25.23604],[152.64292,-25.23566],[152.64377,-25.23649],[152.64261,-25.23719],[152.64233,-25.23867],[152.63967,-25.23745],[152.63868,-25.23777],[152.63867,-25.2371],[152.63696,-25.23765],[152.63608,-25.23731],[152.63621,-25.2366],[152.63547,-25.23706],[152.63335,-25.23633],[152.63321,-25.23486],[152.63183,-25.2349],[152.62894,-25.23254],[152.62849,-25.23091],[152.62991,-25.23204],[152.6306,-25.23199],[152.63065,-25.23099],[152.6313,-25.23098],[152.63109,-25.23178],[152.63157,-25.23224],[152.63065,-25.23308],[152.63157,-25.23434],[152.63317,-25.23413],[152.63387,-25.23461],[152.63362,-25.23539],[152.63451,-25.23603],[152.63425,-25.2353],[152.63475,-25.23479],[152.63634,-25.23518],[152.63599,-25.23611],[152.63781,-25.23673],[152.63836,-25.23628],[152.63825,-25.23549],[152.64173,-25.23605],[152.64302,-25.2336],[152.64237,-25.23288],[152.64229,-25.23155],[152.6435,-25.23082],[152.64328,-25.22971],[152.64223,-25.22945],[152.64263,-25.22762],[152.6415,-25.22599],[152.64188,-25.22425],[152.64059,-25.22399],[152.63791,-25.22179],[152.63693,-25.22215],[152.63774,-25.22224],[152.63808,-25.22316],[152.63688,-25.22324],[152.63559,-25.22156],[152.63569,-25.22047],[152.63439,-25.21967],[152.63483,-25.21879],[152.63423,-25.21868],[152.6331,-25.22059],[152.63223,-25.22005],[152.63168,-25.21863],[152.6291,-25.2188],[152.62872,-25.21785],[152.62758,-25.21884],[152.62803,-25.21585],[152.63986,-25.21734],[152.64869,-25.22727],[152.64738,-25.23208],[152.64887,-25.22877],[152.64902,-25.22706],[152.6402,-25.21714],[152.6486,-25.21205],[152.65871,-25.22406]],[[152.64865,-25.22989],[152.64801,-25.23164],[152.65021,-25.23012],[152.65261,-25.23162],[152.65341,-25.23233],[152.65295,-25.23328],[152.65432,-25.23387],[152.65491,-25.23569],[152.65428,-25.23733],[152.65674,-25.23872],[152.65719,-25.23788],[152.65787,-25.23812],[152.65672,-25.24145],[152.66051,-25.24079],[152.66244,-25.24212],[152.66372,-25.24428],[152.66325,-25.24159],[152.65956,-25.23863],[152.65768,-25.23574],[152.65285,-25.23133],[152.65018,-25.22977],[152.64865,-25.22989]]]}},{"type":"Feature","properties":{"plan":"FHA-029","name":"Burrum","mgmt":"B"},"geometry":{"type":"MultiPolygon","coordinates":[[[[152.6486,-25.18223],[152.6486,-25.21205],[152.6402,-25.21714],[152.62948,-25.19893],[152.62147,-25.18874],[152.62118,-25.18895],[152.61507,-25.18335],[152.61495,-25.18256],[152.61449,-25.18327],[152.61162,-25.18299],[152.61025,-25.18351],[152.60987,-25.18298],[152.60785,-25.18389],[152.60786,-25.18304],[152.60864,-25.18269],[152.61151,-25.18233],[152.6486,-25.18223]]],[[[152.54389,-25.22338],[152.54555,-25.22614],[152.54607,-25.22608],[152.54571,-25.22678],[152.54629,-25.22806],[152.54724,-25.22853],[152.54652,-25.22866],[152.54732,-25.22955],[152.54949,-25.22993],[152.54876,-25.22926],[152.54901,-25.22839],[152.54991,-25.22867],[152.55033,-25.2277],[152.55038,-25.22854],[152.54992,-25.22888],[152.54902,-25.22873],[152.54966,-25.22999],[152.55383,-25.23088],[152.55788,-25.23278],[152.55967,-25.23259],[152.56002,-25.2328],[152.56055,-25.23156],[152.56093,-25.23144],[152.56254,-25.23297],[152.56184,-25.23295],[152.56087,-25.23174],[152.56033,-25.23278],[152.56085,-25.23309],[152.55912,-25.23285],[152.56042,-25.23393],[152.56237,-25.23848],[152.56311,-25.23939],[152.56407,-25.2392],[152.5633,-25.23967],[152.56362,-25.24241],[152.56057,-25.24422],[152.56028,-25.24762],[152.55876,-25.24997],[152.56068,-25.25093],[152.56853,-25.25749],[152.5686,-25.25883],[152.5671,-25.26061],[152.56648,-25.26314],[152.56954,-25.2651],[152.57062,-25.26759],[152.57048,-25.27069],[152.5697,-25.27256],[152.57006,-25.27389],[152.57366,-25.27667],[152.57359,-25.27806],[152.57205,-25.28078],[152.57229,-25.28224],[152.57973,-25.28616],[152.58189,-25.29054],[152.58569,-25.29508],[152.58589,-25.29729],[152.59128,-25.3022],[152.5911,-25.30561],[152.58875,-25.30917],[152.58752,-25.31223],[152.5896,-25.31469],[152.59126,-25.31376],[152.59136,-25.31461],[152.59299,-25.31462],[152.59274,-25.31722],[152.59334,-25.31803],[152.59552,-25.31883],[152.59502,-25.32066],[152.59284,-25.32275],[152.59287,-25.32362],[152.59233,-25.32418],[152.59273,-25.32264],[152.59487,-25.32056],[152.59541,-25.31895],[152.59329,-25.31816],[152.59266,-25.31739],[152.59238,-25.31609],[152.59289,-25.31474],[152.59141,-25.31484],[152.59108,-25.3139],[152.58972,-25.31493],[152.58866,-25.31683],[152.58662,-25.31657],[152.58789,-25.31626],[152.58868,-25.31531],[152.58704,-25.31303],[152.58669,-25.31135],[152.5902,-25.30568],[152.59069,-25.3027],[152.59006,-25.30152],[152.58536,-25.29787],[152.58483,-25.29498],[152.58312,-25.29346],[152.57914,-25.2866],[152.57779,-25.28577],[152.5776,-25.28631],[152.57759,-25.28566],[152.57196,-25.28286],[152.57102,-25.27886],[152.57302,-25.27718],[152.56999,-25.27538],[152.56835,-25.27163],[152.56838,-25.27017],[152.56969,-25.26865],[152.56934,-25.26726],[152.56673,-25.26591],[152.56551,-25.26392],[152.5662,-25.26031],[152.56763,-25.25821],[152.5627,-25.2539],[152.56009,-25.25315],[152.55861,-25.25213],[152.55745,-25.25062],[152.55881,-25.24409],[152.5621,-25.23951],[152.5608,-25.23847],[152.55872,-25.23412],[152.55435,-25.23301],[152.55178,-25.23157],[152.54886,-25.23198],[152.54746,-25.23156],[152.54409,-25.22811],[152.54135,-25.22704],[152.54007,-25.22442],[152.53919,-25.22758],[152.54261,-25.22826],[152.54314,-25.22887],[152.54305,-25.23136],[152.54241,-25.23157],[152.54057,-25.23077],[152.53814,-25.22855],[152.53453,-25.23008],[152.5356,-25.23088],[152.53706,-25.23024],[152.53817,-25.23069],[152.53865,-25.2359],[152.53723,-25.237],[152.53482,-25.23539],[152.53435,-25.23756],[152.53188,-25.23827],[152.52999,-25.24034],[152.5287,-25.24409],[152.5271,-25.24585],[152.52729,-25.24771],[152.52913,-25.24964],[152.52771,-25.25212],[152.52792,-25.25348],[152.5307,-25.25522],[152.5344,-25.25368],[152.53515,-25.25491],[152.53478,-25.25731],[152.53386,-25.25783],[152.53303,-25.25734],[152.53145,-25.2578],[152.53004,-25.25862],[152.53035,-25.25982],[152.52996,-25.26063],[152.52855,-25.26071],[152.52407,-25.263],[152.52314,-25.26589],[152.52451,-25.26711],[152.52472,-25.26951],[152.52068,-25.27474],[152.51877,-25.27545],[152.51732,-25.27527],[152.51679,-25.27461],[152.51719,-25.27353],[152.51397,-25.27425],[152.51706,-25.27312],[152.51772,-25.27378],[152.51739,-25.27497],[152.52009,-25.27465],[152.52417,-25.2695],[152.52409,-25.26749],[152.52257,-25.26569],[152.5237,-25.26278],[152.52963,-25.26024],[152.52995,-25.25824],[152.53154,-25.2573],[152.53434,-25.25683],[152.53474,-25.25516],[152.53435,-25.25427],[152.53078,-25.25599],[152.5284,-25.25535],[152.52726,-25.25235],[152.52835,-25.24914],[152.52686,-25.2478],[152.52666,-25.2457],[152.52788,-25.24458],[152.52943,-25.24072],[152.53143,-25.23796],[152.53366,-25.23652],[152.53453,-25.23499],[152.53661,-25.23478],[152.53777,-25.23395],[152.53737,-25.23152],[152.53451,-25.23103],[152.53365,-25.22991],[152.53784,-25.22802],[152.53997,-25.22917],[152.54092,-25.23048],[152.54242,-25.23074],[152.54245,-25.2302],[152.539,-25.22791],[152.53825,-25.22518],[152.53925,-25.22337],[152.54389,-25.22338]]],[[[152.46429,-25.15655],[152.46805,-25.15668],[152.47075,-25.1561],[152.47391,-25.15512],[152.47979,-25.15203],[152.48439,-25.15104],[152.48852,-25.1523],[152.4894,-25.1539],[152.49343,-25.15596],[152.49569,-25.15831],[152.50054,-25.1591],[152.50124,-25.15814],[152.49897,-25.15788],[152.49809,-25.15713],[152.49825,-25.15493],[152.49688,-25.15253],[152.49701,-25.15135],[152.49536,-25.15014],[152.49527,-25.15043],[152.49387,-25.1509],[152.49376,-25.15079],[152.49539,-25.14999],[152.49708,-25.15123],[152.50067,-25.14997],[152.50288,-25.14826],[152.50411,-25.14573],[152.50525,-25.14514],[152.50633,-25.14553],[152.50919,-25.14874],[152.51164,-25.14888],[152.5112,-25.14952],[152.50876,-25.14885],[152.50708,-25.1467],[152.50517,-25.14537],[152.50401,-25.14768],[152.50196,-25.14966],[152.49767,-25.15165],[152.4975,-25.15235],[152.49897,-25.15419],[152.49928,-25.15707],[152.50195,-25.15789],[152.50183,-25.15913],[152.50042,-25.15967],[152.49574,-25.15903],[152.49298,-25.15627],[152.4889,-25.15424],[152.48804,-25.1527],[152.48446,-25.15163],[152.47087,-25.15685],[152.47005,-25.15916],[152.4674,-25.16265],[152.46979,-25.15866],[152.4701,-25.1572],[152.46581,-25.15737],[152.46429,-25.15655]]]]}},{"type":"Feature","properties":{"plan":"FHA-029","name":"Burrum","mgmt":"A"},"geometry":{"type":"Polygon","coordinates":[[[152.59228,-25.11896],[152.62841,-25.13751],[152.6486,-25.13751],[152.6486,-25.18223],[152.61476,-25.18223],[152.6064,-25.18302],[152.60638,-25.18474],[152.60581,-25.18499],[152.60291,-25.18614],[152.59799,-25.18681],[152.59517,-25.18871],[152.59185,-25.18975],[152.58901,-25.18964],[152.58839,-25.19019],[152.58955,-25.19115],[152.58768,-25.19158],[152.57958,-25.18601],[152.57261,-25.18338],[152.5655,-25.1813],[152.56014,-25.18128],[152.55764,-25.18184],[152.5504,-25.18632],[152.54851,-25.18943],[152.54741,-25.19656],[152.54861,-25.19968],[152.54862,-25.2075],[152.54459,-25.20999],[152.54202,-25.21074],[152.54085,-25.21184],[152.54108,-25.21563],[152.54389,-25.22338],[152.53925,-25.22337],[152.53882,-25.22115],[152.53682,-25.21799],[152.53562,-25.21897],[152.53686,-25.21742],[152.53623,-25.21225],[152.53401,-25.2133],[152.53157,-25.21309],[152.52846,-25.21111],[152.52665,-25.21083],[152.52606,-25.21132],[152.52557,-25.21501],[152.51919,-25.22114],[152.51645,-25.2219],[152.51412,-25.21996],[152.51185,-25.21956],[152.51098,-25.21881],[152.51109,-25.21755],[152.5099,-25.21593],[152.5116,-25.21289],[152.51023,-25.20979],[152.50902,-25.20921],[152.50408,-25.2093],[152.50184,-25.21143],[152.49971,-25.21121],[152.49942,-25.21219],[152.49953,-25.21126],[152.49734,-25.21008],[152.49544,-25.2097],[152.49389,-25.21011],[152.48357,-25.21777],[152.47394,-25.21716],[152.47408,-25.21634],[152.48241,-25.21666],[152.48425,-25.21596],[152.48843,-25.21318],[152.4909,-25.21081],[152.49437,-25.20916],[152.49851,-25.20949],[152.50138,-25.21049],[152.50345,-25.20847],[152.50848,-25.20846],[152.51069,-25.20959],[152.51257,-25.21287],[152.51289,-25.21439],[152.51175,-25.21584],[152.51082,-25.216],[152.51254,-25.21853],[152.5146,-25.21915],[152.51669,-25.22091],[152.51785,-25.22097],[152.52375,-25.21535],[152.52395,-25.21242],[152.52506,-25.21034],[152.52818,-25.2097],[152.53071,-25.20995],[152.53197,-25.2104],[152.5328,-25.21182],[152.53449,-25.21215],[152.53479,-25.21107],[152.53388,-25.20891],[152.53413,-25.20787],[152.53626,-25.20698],[152.54132,-25.20704],[152.54501,-25.20501],[152.54618,-25.20351],[152.54626,-25.20174],[152.54711,-25.20136],[152.54583,-25.1983],[152.54266,-25.19456],[152.54136,-25.19386],[152.54075,-25.19457],[152.53968,-25.19386],[152.53984,-25.19054],[152.53924,-25.18885],[152.54085,-25.18467],[152.53843,-25.18403],[152.54104,-25.18239],[152.54181,-25.18309],[152.5433,-25.18192],[152.54393,-25.18282],[152.54553,-25.1823],[152.54965,-25.17795],[152.55069,-25.17807],[152.55299,-25.17646],[152.54866,-25.17408],[152.5469,-25.174],[152.54439,-25.1749],[152.54496,-25.17423],[152.54188,-25.17384],[152.53695,-25.17526],[152.53698,-25.1758],[152.53635,-25.17542],[152.53513,-25.17614],[152.53544,-25.1768],[152.53468,-25.17633],[152.53362,-25.1769],[152.53052,-25.17597],[152.53148,-25.17756],[152.5286,-25.17919],[152.52691,-25.17822],[152.52684,-25.17708],[152.52578,-25.17788],[152.52452,-25.17707],[152.52236,-25.17687],[152.52252,-25.1779],[152.52212,-25.17812],[152.52125,-25.17805],[152.52088,-25.17863],[152.52175,-25.17872],[152.52281,-25.17932],[152.52289,-25.17949],[152.52272,-25.17985],[152.52179,-25.17941],[152.5209,-25.18001],[152.5202,-25.18017],[152.5198,-25.18135],[152.52038,-25.18228],[152.51815,-25.18257],[152.51705,-25.18435],[152.51575,-25.18412],[152.51546,-25.1848],[152.51577,-25.18396],[152.51697,-25.1842],[152.51801,-25.1825],[152.51987,-25.18209],[152.51966,-25.18103],[152.52022,-25.18002],[152.52189,-25.17928],[152.52281,-25.17947],[152.52079,-25.17864],[152.52117,-25.17799],[152.52238,-25.17791],[152.52235,-25.17756],[152.52177,-25.17758],[152.52132,-25.17692],[152.52187,-25.17623],[152.52137,-25.17662],[152.5211,-25.17659],[152.52042,-25.1762],[152.51931,-25.17665],[152.51931,-25.17532],[152.51875,-25.17532],[152.51831,-25.17504],[152.51824,-25.17418],[152.51801,-25.17498],[152.51667,-25.17545],[152.51645,-25.17543],[152.51572,-25.17474],[152.51663,-25.17531],[152.51791,-25.1749],[152.51782,-25.17422],[152.5183,-25.1741],[152.51841,-25.17494],[152.51936,-25.17502],[152.51935,-25.17649],[152.52051,-25.17603],[152.52131,-25.17654],[152.52185,-25.17616],[152.52201,-25.17637],[152.52195,-25.17658],[152.52145,-25.17682],[152.52194,-25.17753],[152.52239,-25.17674],[152.52452,-25.17696],[152.52581,-25.17772],[152.52688,-25.17679],[152.52703,-25.1781],[152.52795,-25.17857],[152.52878,-25.17711],[152.53064,-25.17772],[152.52976,-25.17596],[152.5302,-25.17509],[152.53113,-25.175],[152.53228,-25.17581],[152.53424,-25.17543],[152.53324,-25.17433],[152.53412,-25.17355],[152.5312,-25.17168],[152.53193,-25.17013],[152.53107,-25.16924],[152.53118,-25.16856],[152.5282,-25.16613],[152.52828,-25.1641],[152.52758,-25.16384],[152.52837,-25.16362],[152.52853,-25.16272],[152.5263,-25.16262],[152.52838,-25.16251],[152.52879,-25.16274],[152.52876,-25.16371],[152.52932,-25.16301],[152.53078,-25.15994],[152.52954,-25.15729],[152.52912,-25.15679],[152.52585,-25.15674],[152.52327,-25.15578],[152.52359,-25.1554],[152.52232,-25.15328],[152.52161,-25.15309],[152.52206,-25.15279],[152.52168,-25.1503],[152.51986,-25.14892],[152.5161,-25.14835],[152.51155,-25.1495],[152.51164,-25.14888],[152.51426,-25.14747],[152.51955,-25.14803],[152.52124,-25.14872],[152.52249,-25.14997],[152.52461,-25.15506],[152.52591,-25.15564],[152.52995,-25.15598],[152.53171,-25.15994],[152.53039,-25.16403],[152.52957,-25.16457],[152.52997,-25.16462],[152.52924,-25.16577],[152.53008,-25.16606],[152.53163,-25.16482],[152.53337,-25.16504],[152.53441,-25.1691],[152.53698,-25.17077],[152.54039,-25.17206],[152.54104,-25.17177],[152.53956,-25.16991],[152.54053,-25.16866],[152.5423,-25.16721],[152.5452,-25.16677],[152.54516,-25.16482],[152.54651,-25.16366],[152.54777,-25.16406],[152.54954,-25.16346],[152.54989,-25.16442],[152.54806,-25.1659],[152.54799,-25.16668],[152.54874,-25.16851],[152.55047,-25.16902],[152.56369,-25.16799],[152.57062,-25.16486],[152.57129,-25.16395],[152.57408,-25.1637],[152.57809,-25.164],[152.58048,-25.16481],[152.58359,-25.16946],[152.58273,-25.17005],[152.58368,-25.17135],[152.58501,-25.1718],[152.58999,-25.17213],[152.59349,-25.17116],[152.59323,-25.17029],[152.59507,-25.17035],[152.59848,-25.16922],[152.60449,-25.17046],[152.60886,-25.17218],[152.60975,-25.17318],[152.61178,-25.17298],[152.61447,-25.17374],[152.61798,-25.17332],[152.62282,-25.17144],[152.63276,-25.15423],[152.63257,-25.15173],[152.62843,-25.14816],[152.62148,-25.14487],[152.61664,-25.14169],[152.59765,-25.13291],[152.58688,-25.12639],[152.59228,-25.11896]]]}},{"type":"Feature","properties":{"plan":"FHA-052","name":"Elliott River","mgmt":"A"},"geometry":{"type":"MultiPolygon","coordinates":[[[[152.46992,-24.9328],[152.4765,-24.92861],[152.47651,-24.92545],[152.47751,-24.9247],[152.48018,-24.92421],[152.48344,-24.91958],[152.48678,-24.91958],[152.49122,-24.92207],[152.49583,-24.92726],[152.49583,-24.93025],[152.49048,-24.93021],[152.48701,-24.93136],[152.48438,-24.93123],[152.484,-24.93252],[152.47819,-24.93571],[152.47713,-24.93714],[152.47099,-24.93751],[152.47161,-24.93991],[152.4715,-24.94275],[152.46846,-24.9458],[152.46742,-24.94777],[152.46574,-24.94884],[152.46538,-24.95002],[152.46683,-24.95093],[152.46734,-24.95198],[152.46563,-24.95475],[152.46206,-24.95521],[152.46105,-24.95903],[152.46034,-24.95976],[152.45853,-24.96035],[152.45438,-24.96027],[152.453,-24.96089],[152.45277,-24.96204],[152.45443,-24.96217],[152.45447,-24.96319],[152.4526,-24.96606],[152.45143,-24.96602],[152.45094,-24.9679],[152.44984,-24.96913],[152.4461,-24.96901],[152.44567,-24.96816],[152.44399,-24.96781],[152.4417,-24.96885],[152.44087,-24.97019],[152.43926,-24.97007],[152.43759,-24.97167],[152.4366,-24.97176],[152.43629,-24.9706],[152.43853,-24.96999],[152.43827,-24.96905],[152.44003,-24.96748],[152.44004,-24.96663],[152.4414,-24.96615],[152.44172,-24.96694],[152.44265,-24.96713],[152.44166,-24.96371],[152.44469,-24.96419],[152.44817,-24.96282],[152.44835,-24.9586],[152.44951,-24.95511],[152.45214,-24.95402],[152.45307,-24.9543],[152.45386,-24.95553],[152.4551,-24.95496],[152.46001,-24.95026],[152.45996,-24.94967],[152.45755,-24.94854],[152.45534,-24.94532],[152.45271,-24.94496],[152.45284,-24.94415],[152.45229,-24.94384],[152.45069,-24.94412],[152.44956,-24.94356],[152.44599,-24.94515],[152.44428,-24.94528],[152.44263,-24.94398],[152.44152,-24.94425],[152.44152,-24.94322],[152.44707,-24.94334],[152.44517,-24.93697],[152.44656,-24.93685],[152.44895,-24.94152],[152.45049,-24.9401],[152.45556,-24.93978],[152.45966,-24.94463],[152.46125,-24.9445],[152.46421,-24.94208],[152.46446,-24.93916],[152.46394,-24.93778],[152.46405,-24.93704],[152.4646,-24.93707],[152.46367,-24.9363],[152.46426,-24.93577],[152.46474,-24.93269],[152.4661,-24.93191],[152.46613,-24.93323],[152.46699,-24.93391],[152.46694,-24.93458],[152.46584,-24.93538],[152.46572,-24.9369],[152.46834,-24.93304],[152.46938,-24.93233],[152.46992,-24.9328]]],[[[152.46932,-24.91387],[152.46912,-24.91516],[152.47024,-24.9148],[152.47046,-24.9155],[152.47262,-24.91695],[152.47686,-24.91432],[152.47885,-24.91933],[152.48019,-24.91951],[152.48348,-24.91858],[152.48004,-24.92345],[152.47513,-24.92529],[152.4746,-24.92118],[152.47175,-24.92002],[152.47183,-24.91956],[152.46949,-24.9178],[152.46936,-24.91853],[152.46774,-24.91733],[152.46749,-24.91619],[152.46617,-24.91505],[152.46655,-24.91275],[152.46932,-24.91387]]]]}},{"type":"Feature","properties":{"plan":"FHA-002","name":"Kinkuna","mgmt":"A"},"geometry":{"type":"MultiPolygon","coordinates":[[[[152.53771,-25.08179],[152.53735,-25.0814],[152.53641,-25.08283],[152.53755,-25.084],[152.53699,-25.0842],[152.53727,-25.08545],[152.53594,-25.08619],[152.53638,-25.08756],[152.53417,-25.08928],[152.53639,-25.09077],[152.53692,-25.09032],[152.53746,-25.09209],[152.53675,-25.09324],[152.53573,-25.09371],[152.53564,-25.09492],[152.53803,-25.09574],[152.53922,-25.09694],[152.53538,-25.09625],[152.53505,-25.09788],[152.5346,-25.09743],[152.53373,-25.09765],[152.53514,-25.09918],[152.53472,-25.10066],[152.533,-25.10165],[152.53281,-25.10095],[152.53369,-25.09939],[152.53184,-25.09805],[152.5332,-25.09795],[152.53301,-25.0966],[152.53355,-25.09543],[152.5312,-25.0942],[152.53116,-25.09521],[152.52995,-25.09553],[152.53067,-25.09395],[152.53221,-25.09386],[152.53257,-25.09476],[152.5331,-25.09449],[152.53294,-25.09396],[152.53142,-25.09261],[152.52964,-25.09312],[152.52848,-25.09243],[152.5294,-25.09124],[152.53323,-25.09199],[152.53244,-25.0898],[152.53065,-25.08908],[152.53094,-25.08795],[152.53252,-25.08776],[152.53345,-25.08546],[152.53596,-25.08477],[152.53607,-25.08422],[152.53445,-25.08161],[152.53184,-25.08097],[152.53168,-25.08173],[152.5305,-25.08046],[152.52918,-25.07585],[152.52717,-25.07401],[152.52746,-25.07307],[152.52564,-25.07299],[152.52371,-25.07095],[152.52337,-25.0695],[152.52108,-25.07279],[152.51738,-25.07334],[152.51635,-25.07516],[152.51482,-25.07534],[152.51463,-25.07673],[152.51191,-25.07745],[152.51,-25.07696],[152.50918,-25.07601],[152.50914,-25.07696],[152.50563,-25.08074],[152.50594,-25.08133],[152.5052,-25.0823],[152.50274,-25.08209],[152.50226,-25.08308],[152.5003,-25.08321],[152.49906,-25.08187],[152.49799,-25.0816],[152.49848,-25.0807],[152.49736,-25.08002],[152.49594,-25.08256],[152.49713,-25.08451],[152.49674,-25.08539],[152.49786,-25.08685],[152.49553,-25.08621],[152.49604,-25.08705],[152.49523,-25.08749],[152.49512,-25.08923],[152.49375,-25.08939],[152.49476,-25.08903],[152.49359,-25.08818],[152.49068,-25.08793],[152.4896,-25.08734],[152.48839,-25.08812],[152.48826,-25.08897],[152.489,-25.08993],[152.48849,-25.09011],[152.48888,-25.08985],[152.48807,-25.08917],[152.48741,-25.08679],[152.48961,-25.08712],[152.49134,-25.08784],[152.49253,-25.08763],[152.49281,-25.08645],[152.49636,-25.08552],[152.49683,-25.08446],[152.49636,-25.08365],[152.49545,-25.0844],[152.49464,-25.084],[152.49682,-25.08044],[152.49563,-25.07941],[152.49549,-25.07583],[152.49601,-25.07536],[152.49559,-25.07602],[152.4962,-25.07921],[152.49691,-25.07899],[152.4972,-25.07971],[152.50006,-25.08117],[152.50172,-25.07982],[152.50269,-25.08141],[152.50357,-25.07988],[152.5049,-25.07925],[152.50573,-25.0768],[152.50632,-25.07697],[152.50707,-25.07545],[152.50868,-25.0742],[152.50924,-25.0731],[152.50851,-25.07185],[152.5093,-25.07221],[152.50964,-25.07133],[152.51028,-25.07127],[152.5118,-25.07333],[152.51292,-25.07368],[152.51241,-25.07235],[152.51356,-25.07179],[152.51353,-25.07128],[152.51261,-25.07051],[152.51178,-25.0712],[152.51218,-25.07006],[152.51123,-25.07096],[152.51149,-25.06858],[152.51201,-25.06827],[152.51023,-25.06724],[152.50994,-25.06614],[152.51039,-25.06514],[152.51114,-25.06567],[152.51137,-25.06462],[152.51028,-25.06432],[152.51028,-25.06336],[152.50969,-25.06247],[152.50981,-25.06287],[152.50893,-25.06277],[152.50949,-25.06225],[152.50884,-25.061],[152.50884,-25.06032],[152.5096,-25.06202],[152.51068,-25.06286],[152.51205,-25.06275],[152.51296,-25.06342],[152.51238,-25.06676],[152.51365,-25.06641],[152.51409,-25.06677],[152.5137,-25.06732],[152.51432,-25.06824],[152.51359,-25.06841],[152.51368,-25.06928],[152.51527,-25.06921],[152.51667,-25.07083],[152.51787,-25.07094],[152.51877,-25.06939],[152.51819,-25.06882],[152.52356,-25.06701],[152.52672,-25.07134],[152.52886,-25.07304],[152.53016,-25.07295],[152.53136,-25.07388],[152.53134,-25.07324],[152.53275,-25.0723],[152.53392,-25.07304],[152.53476,-25.07166],[152.53452,-25.07109],[152.53335,-25.07155],[152.53383,-25.06898],[152.53337,-25.0679],[152.53124,-25.06834],[152.53197,-25.06499],[152.53155,-25.06458],[152.53057,-25.06497],[152.53018,-25.06429],[152.53019,-25.06362],[152.53083,-25.06456],[152.533,-25.0641],[152.53417,-25.0604],[152.53512,-25.05995],[152.53596,-25.05842],[152.53536,-25.05805],[152.53562,-25.05745],[152.53493,-25.05643],[152.53455,-25.05697],[152.53357,-25.05642],[152.5331,-25.05708],[152.53216,-25.05652],[152.53214,-25.05611],[152.53316,-25.05656],[152.5324,-25.05578],[152.53199,-25.05411],[152.53332,-25.05381],[152.53309,-25.05193],[152.5322,-25.05155],[152.53168,-25.05004],[152.53008,-25.04953],[152.52975,-25.04755],[152.5282,-25.04522],[152.52647,-25.04463],[152.52634,-25.04621],[152.52558,-25.04461],[152.52648,-25.04366],[152.52439,-25.04319],[152.5254,-25.0428],[152.52447,-25.04186],[152.52351,-25.03938],[152.52081,-25.03858],[152.51978,-25.0397],[152.51768,-25.03904],[152.51599,-25.03541],[152.51349,-25.03192],[152.51505,-25.03324],[152.51859,-25.03812],[152.51938,-25.03832],[152.51994,-25.03777],[152.51952,-25.03496],[152.52318,-25.03694],[152.52688,-25.04263],[152.52944,-25.04577],[152.53013,-25.04598],[152.53023,-25.04714],[152.53092,-25.04733],[152.53232,-25.05073],[152.53404,-25.05163],[152.538,-25.05809],[152.54022,-25.06031],[152.51369,-25.02249],[152.50551,-25.00881],[152.5068,-25.00835],[152.51666,-25.00835],[152.52253,-25.01834],[152.55502,-25.06397],[152.55597,-25.06668],[152.54805,-25.06668],[152.54613,-25.0682],[152.54173,-25.06233],[152.53955,-25.06063],[152.54348,-25.06551],[152.54257,-25.06508],[152.54229,-25.06552],[152.54363,-25.06645],[152.54424,-25.06775],[152.54352,-25.06819],[152.54335,-25.06784],[152.54329,-25.06869],[152.54241,-25.06912],[152.54367,-25.06892],[152.54143,-25.06953],[152.54024,-25.07071],[152.53968,-25.07339],[152.53827,-25.07461],[152.53759,-25.07623],[152.53993,-25.07892],[152.53803,-25.07959],[152.53758,-25.08062],[152.53831,-25.08125],[152.53771,-25.08179]]],[[[152.54509,-25.07589],[152.55118,-25.08467],[152.55066,-25.08549],[152.54952,-25.08522],[152.55218,-25.0921],[152.55003,-25.09338],[152.54906,-25.09179],[152.54973,-25.09089],[152.54943,-25.08964],[152.54854,-25.08953],[152.54614,-25.08376],[152.54409,-25.08109],[152.54321,-25.0807],[152.54317,-25.07999],[152.54061,-25.07869],[152.54253,-25.07746],[152.54355,-25.07785],[152.54311,-25.0772],[152.54392,-25.07625],[152.54509,-25.07589]]],[[[152.48549,-24.96011],[152.48683,-24.95983],[152.4867,-24.96181],[152.48754,-24.96223],[152.48814,-24.96513],[152.48789,-24.96658],[152.4886,-24.96785],[152.48851,-24.96601],[152.49879,-24.96571],[152.50086,-24.97735],[152.50299,-24.98279],[152.49239,-24.98315],[152.48894,-24.96895],[152.48372,-24.97013],[152.48512,-24.97527],[152.48386,-24.97632],[152.48245,-24.9757],[152.48205,-24.97604],[152.48268,-24.97713],[152.48493,-24.97757],[152.48594,-24.97897],[152.48585,-24.97982],[152.48435,-24.98021],[152.48379,-24.9814],[152.48566,-24.98166],[152.486,-24.98241],[152.48702,-24.98219],[152.48642,-24.98384],[152.48519,-24.98431],[152.48581,-24.98561],[152.48698,-24.98562],[152.48492,-24.98904],[152.48446,-24.98864],[152.48223,-24.98872],[152.48362,-24.98938],[152.48392,-24.99016],[152.48216,-24.99166],[152.48197,-24.99087],[152.4793,-24.99088],[152.47956,-24.99673],[152.47869,-24.99727],[152.47933,-24.99663],[152.47878,-24.99108],[152.47756,-24.99135],[152.47656,-24.99116],[152.47762,-24.99123],[152.47938,-24.99033],[152.48304,-24.99063],[152.48362,-24.98973],[152.48235,-24.98945],[152.4821,-24.98845],[152.48509,-24.98838],[152.48548,-24.98802],[152.48558,-24.9876],[152.48495,-24.98823],[152.48455,-24.98774],[152.48536,-24.98696],[152.48481,-24.98422],[152.48489,-24.98262],[152.48544,-24.98217],[152.48359,-24.98219],[152.48273,-24.98012],[152.48416,-24.97886],[152.48256,-24.97852],[152.48117,-24.97583],[152.4814,-24.9745],[152.48346,-24.97494],[152.48437,-24.97312],[152.48344,-24.97299],[152.48185,-24.9687],[152.48202,-24.96798],[152.48364,-24.9668],[152.48475,-24.96255],[152.4849,-24.95942],[152.48578,-24.95942],[152.48549,-24.96011]]]]}},{"type":"Feature","properties":{"plan":"FHA-032","name":"Kolan River","mgmt":"B"},"geometry":{"type":"MultiPolygon","coordinates":[[[[152.22816,-24.68678],[152.22425,-24.68674],[152.22473,-24.68683],[152.22547,-24.68862],[152.22417,-24.68909],[152.2239,-24.68817],[152.22383,-24.68937],[152.22599,-24.68997],[152.2257,-24.6904],[152.22711,-24.69192],[152.22646,-24.69247],[152.22673,-24.69333],[152.22789,-24.69454],[152.22865,-24.69443],[152.23047,-24.69777],[152.22979,-24.70061],[152.22927,-24.69993],[152.2299,-24.69826],[152.2294,-24.69833],[152.22709,-24.69583],[152.22515,-24.69289],[152.2238,-24.69282],[152.22353,-24.69246],[152.22431,-24.6925],[152.22462,-24.69158],[152.22342,-24.69232],[152.22045,-24.68845],[152.22011,-24.6871],[152.209,-24.68845],[152.20917,-24.68797],[152.20726,-24.68798],[152.20117,-24.68877],[152.19954,-24.6893],[152.19965,-24.68965],[152.18978,-24.69038],[152.18924,-24.68762],[152.18855,-24.68762],[152.17693,-24.69083],[152.17142,-24.6918],[152.16924,-24.69359],[152.16785,-24.69257],[152.16462,-24.69495],[152.16452,-24.69742],[152.16341,-24.6976],[152.1646,-24.69919],[152.16787,-24.69979],[152.18152,-24.69783],[152.1848,-24.69912],[152.18695,-24.70099],[152.19104,-24.71098],[152.18858,-24.71899],[152.18882,-24.72071],[152.18823,-24.72204],[152.18417,-24.72407],[152.18376,-24.72468],[152.18479,-24.72483],[152.18384,-24.72508],[152.18325,-24.72413],[152.18404,-24.72337],[152.17934,-24.72218],[152.17885,-24.72093],[152.18033,-24.72096],[152.18057,-24.72054],[152.17766,-24.71932],[152.17571,-24.71967],[152.17387,-24.72155],[152.17229,-24.72655],[152.1669,-24.73771],[152.16502,-24.73694],[152.1671,-24.73362],[152.1676,-24.73133],[152.16718,-24.72884],[152.1703,-24.72306],[152.17366,-24.71891],[152.17565,-24.71797],[152.1781,-24.71794],[152.18598,-24.72072],[152.18682,-24.7199],[152.18819,-24.71601],[152.18869,-24.71239],[152.18737,-24.70966],[152.18572,-24.70273],[152.18413,-24.70056],[152.18084,-24.70015],[152.17908,-24.70152],[152.17282,-24.7027],[152.16828,-24.70272],[152.16501,-24.70194],[152.16512,-24.70344],[152.1639,-24.70499],[152.15885,-24.70657],[152.15853,-24.7089],[152.1565,-24.71113],[152.15378,-24.71159],[152.15347,-24.71523],[152.15252,-24.7163],[152.15352,-24.71706],[152.15379,-24.71837],[152.15251,-24.72175],[152.15119,-24.72267],[152.1497,-24.72219],[152.15025,-24.71968],[152.1497,-24.71953],[152.14706,-24.72167],[152.14452,-24.72213],[152.14412,-24.72262],[152.14447,-24.72335],[152.14714,-24.7241],[152.14773,-24.72486],[152.14751,-24.72567],[152.14424,-24.72645],[152.1434,-24.72965],[152.14098,-24.73161],[152.13791,-24.732],[152.13711,-24.73312],[152.13468,-24.73326],[152.13724,-24.73246],[152.13769,-24.7314],[152.13908,-24.73185],[152.14117,-24.73104],[152.14323,-24.72932],[152.14397,-24.72633],[152.14742,-24.72515],[152.14683,-24.72434],[152.14423,-24.7238],[152.14343,-24.72238],[152.14386,-24.7214],[152.1472,-24.72089],[152.14875,-24.71947],[152.15065,-24.71888],[152.15162,-24.72014],[152.15138,-24.72182],[152.15263,-24.72091],[152.15305,-24.71896],[152.1524,-24.71857],[152.15208,-24.71904],[152.1516,-24.71845],[152.15033,-24.71501],[152.15174,-24.71371],[152.15367,-24.71003],[152.15777,-24.70589],[152.16293,-24.70347],[152.16158,-24.6957],[152.16182,-24.69438],[152.16286,-24.69303],[152.16729,-24.69059],[152.16994,-24.68989],[152.17347,-24.68979],[152.1759,-24.68761],[152.18078,-24.68464],[152.18548,-24.68404],[152.18952,-24.6811],[152.19878,-24.67686],[152.20057,-24.67359],[152.20166,-24.66989],[152.20216,-24.66968],[152.20173,-24.66776],[152.20051,-24.66627],[152.19933,-24.66667],[152.19412,-24.66328],[152.1935,-24.6623],[152.18012,-24.65411],[152.16626,-24.64346],[152.16074,-24.63807],[152.19356,-24.65127],[152.19711,-24.65195],[152.20302,-24.65475],[152.21752,-24.66602],[152.22827,-24.67312],[152.24228,-24.68761],[152.24062,-24.68865],[152.23715,-24.6889],[152.23382,-24.68782],[152.23337,-24.68712],[152.23102,-24.68696],[152.23408,-24.68602],[152.23431,-24.68579],[152.22946,-24.68688],[152.23026,-24.68703],[152.23153,-24.68924],[152.23411,-24.69145],[152.23496,-24.69257],[152.2344,-24.69295],[152.22816,-24.68678]]],[[[152.13015,-24.73298],[152.13163,-24.73457],[152.13354,-24.73456],[152.13178,-24.73504],[152.1302,-24.73373],[152.12857,-24.73342],[152.12573,-24.73411],[152.12242,-24.73404],[152.11681,-24.73551],[152.1124,-24.73902],[152.1137,-24.7371],[152.11661,-24.73507],[152.12289,-24.73374],[152.13015,-24.73298]]]]}}]}